#dV2023  1 30 10  0  0.00000000    1682       CTS   FIT  GFZ
## 2247 122400.00000000    30.00000000 59974 0.4166666666667
+    1   L64  0  0  0  0  0  0  0  0  0  0  0  0  0  0  0  0
+          0  0  0  0  0  0  0  0  0  0  0  0  0  0  0  0  0
+          0  0  0  0  0  0  0  0  0  0  0  0  0  0  0  0  0
+          0  0  0  0  0  0  0  0  0  0  0  0  0  0  0  0  0
+          0  0  0  0  0  0  0  0  0  0  0  0  0  0  0  0  0
++         0  0  0  0  0  0  0  0  0  0  0  0  0  0  0  0  0
++         0  0  0  0  0  0  0  0  0  0  0  0  0  0  0  0  0
++         0  0  0  0  0  0  0  0  0  0  0  0  0  0  0  0  0
++         0  0  0  0  0  0  0  0  0  0  0  0  0  0  0  0  0
++         0  0  0  0  0  0  0  0  0  0  0  0  0  0  0  0  0
%c L  cc GPS ccc cccc cccc cccc cccc ccccc ccccc ccccc ccccc
%c cc cc ccc ccc cccc cccc cccc cccc ccccc ccccc ccccc ccccc
%f  0.0000000  0.000000000  0.00000000000  0.000000000000000
%f  0.0000000  0.000000000  0.00000000000  0.000000000000000
%i    0    0    0    0      0      0      0      0         0
%i    0    0    0    0      0      0      0      0         0
/* CCCCCCCCCCCCCCCCCCCCCCCCCCCCCCCCCCCCCCCCCCCCCCCCCCCCCCCCCCCCCCCCCCCCCCCCCCCCC
/* C                             GFZ RSO-ORBIT                                 C
/* C DOI: https://doi.org/10.5880/GFZ_ORBIT/RSO/L64_G_v02                      C
/* C                                                                           C
/* C DORIS        RMS: not applicable                                          C
/* C GNSS-E Code  RMS: not applicable                                          C
/* C GNSS-E Phase RMS: not applicable                                          C
/* C GNSS-G Code  RMS:  49.733 [cm]   Obs.acc.:     13371 Obs.eli.:      1258  C
/* C GNSS-G Phase RMS:   4.093 [mm]   Obs.acc.:     13371 Obs.eli.:      1258  C
/* C SLR          RMS:   3.208 [cm]   Obs.acc.:        14 Obs.eli.:         0  C
/* C                                                                           C
/* CCCCCCCCCCCCCCCCCCCCCCCCCCCCCCCCCCCCCCCCCCCCCCCCCCCCCCCCCCCCCCCCCCCCCCCCCCCCC
*  2023  1 30 13 24  0.00000000
PL64  -1500.913327   -997.260545   6620.632135   3733.282641
VL64 -58983.496482 -43750.315238 -20024.131113 999999.999999
*  2023  1 30 13 24 30.00000000
PL64  -1677.291574  -1127.552656   6556.903307   3733.743021
VL64 -58590.730988 -43103.402836 -22457.912427 999999.999999
*  2023  1 30 13 25  0.00000000
PL64  -1852.390201  -1255.835325   6485.909047   3734.203493
VL64 -58130.456377 -42410.854865 -24867.307362 999999.999999
*  2023  1 30 13 25 30.00000000
PL64  -2026.007075  -1381.973181   6407.726511   3734.664017
VL64 -57602.947297 -41673.703673 -27249.655130 999999.999999
*  2023  1 30 13 26  0.00000000
PL64  -2197.940999  -1505.834021   6322.440804   3735.124531
VL64 -57008.555010 -40893.028059 -29602.316511 999999.999999
*  2023  1 30 13 26 30.00000000
PL64  -2367.991951  -1627.288950   6230.144913   3735.584752
VL64 -56347.711038 -40069.954605 -31922.677901 999999.999999
*  2023  1 30 13 27  0.00000000
PL64  -2535.961323  -1746.212521   6130.939619   3736.044854
VL64 -55620.926771 -39205.655561 -34208.157704 999999.999999
*  2023  1 30 13 27 30.00000000
PL64  -2701.652159  -1862.482872   6024.933398   3736.505050
VL64 -54828.792510 -38301.346595 -36456.207757 999999.999999
*  2023  1 30 13 28  0.00000000
PL64  -2864.869397  -1975.981849   5912.242315   3736.964901
VL64 -53971.980028 -37358.286933 -38664.316360 999999.999999
*  2023  1 30 13 28 30.00000000
PL64  -3025.420110  -2086.595143   5792.989910   3737.424998
VL64 -53051.241375 -36377.777864 -40830.016294 999999.999999
*  2023  1 30 13 29  0.00000000
PL64  -3183.113743  -2194.212405   5667.307048   3737.885466
VL64 -52067.403406 -35361.159043 -42950.887632 999999.999999
*  2023  1 30 13 29 30.00000000
PL64  -3337.762330  -2298.727362   5535.331789   3738.345573
VL64 -51021.367473 -34309.806525 -45024.555388 999999.999999
*  2023  1 30 13 30  0.00000000
PL64  -3489.180726  -2400.037922   5397.209249   3738.805575
VL64 -49914.112073 -33225.132863 -47048.691683 999999.999999
*  2023  1 30 13 30 30.00000000
PL64  -3637.186836  -2498.046284   5253.091448   3739.265766
VL64 -48746.692855 -32108.585671 -49021.020874 999999.999999
*  2023  1 30 13 31  0.00000000
PL64  -3781.601848  -2592.659041   5103.137152   3739.725854
VL64 -47520.241137 -30961.644845 -50939.323577 999999.999999
*  2023  1 30 13 31 30.00000000
PL64  -3922.250453  -2683.787269   4947.511695   3740.185892
VL64 -46235.961879 -29785.819969 -52801.439330 999999.999999
*  2023  1 30 13 32  0.00000000
PL64  -4058.961067  -2771.346613   4786.386805   3740.645908
VL64 -44895.132113 -28582.648122 -54605.268207 999999.999999
*  2023  1 30 13 32 30.00000000
PL64  -4191.566042  -2855.257372   4619.940413   3741.105835
VL64 -43499.100314 -27353.692095 -56348.772503 999999.999999
*  2023  1 30 13 33  0.00000000
PL64  -4319.901883  -2935.444568   4448.356469   3741.565496
VL64 -42049.285717 -26100.538961 -58029.979294 999999.999999
*  2023  1 30 13 33 30.00000000
PL64  -4443.809459  -3011.838018   4271.824742   3742.025344
VL64 -40547.176911 -24824.798506 -59646.983495 999999.999999
*  2023  1 30 13 34  0.00000000
PL64  -4563.134204  -3084.372401   4090.540608   3742.485140
VL64 -38994.329795 -23528.100967 -61197.950327 999999.999999
*  2023  1 30 13 34 30.00000000
PL64  -4677.726319  -3152.987315   3904.704843   3742.944706
VL64 -37392.366097 -22212.094712 -62681.116809 999999.999999
*  2023  1 30 13 35  0.00000000
PL64  -4787.440969  -3217.627325   3714.523399   3743.404500
VL64 -35742.972549 -20878.444397 -64094.793833 999999.999999
*  2023  1 30 13 35 30.00000000
PL64  -4892.138473  -3278.242016   3520.207185   3743.864463
VL64 -34047.899221 -19528.829008 -65437.368835 999999.999999
*  2023  1 30 13 36  0.00000000
PL64  -4991.684494  -3334.786025   3321.971825   3744.324049
VL64 -32308.957710 -18164.940035 -66707.307576 999999.999999
*  2023  1 30 13 36 30.00000000
PL64  -5085.950221  -3387.219084   3120.037432   3744.783295
VL64 -30528.020246 -16788.479960 -67903.156470 999999.999999
*  2023  1 30 13 37  0.00000000
PL64  -5174.812549  -3435.506045   2914.628349   3745.242629
VL64 -28707.017731 -15401.159885 -69023.546164 999999.999999
*  2023  1 30 13 37 30.00000000
PL64  -5258.154247  -3479.616900   2705.972900   3745.702294
VL64 -26847.936349 -14004.696629 -70067.194037 999999.999999
*  2023  1 30 13 38  0.00000000
PL64  -5335.864125  -3519.526801   2494.303124   3746.162274
VL64 -24952.814473 -12600.810335 -71032.905536 999999.999999
*  2023  1 30 13 38 30.00000000
PL64  -5407.837180  -3555.216061   2279.854511   3746.621332
VL64 -23023.740201 -11191.222258 -71919.575224 999999.999999
*  2023  1 30 13 39  0.00000000
PL64  -5473.974748  -3586.670153   2062.865732   3747.079736
VL64 -21062.849435  -9777.652526 -72726.188053 999999.999999
*  2023  1 30 13 39 30.00000000
PL64  -5534.184640  -3613.879711   1843.578366   3747.538027
VL64 -19072.323600  -8361.817690 -73451.821104 999999.999999
*  2023  1 30 13 40  0.00000000
PL64  -5588.381277  -3636.840505   1622.236618   3747.995259
VL64 -17054.386750  -6945.428050 -74095.644860 999999.999999
*  2023  1 30 13 40 30.00000000
PL64  -5636.485812  -3655.553427   1399.087044   3748.452179
VL64 -15011.302928  -5530.185387 -74656.923968 999999.999999
*  2023  1 30 13 41  0.00000000
PL64  -5678.426248  -3670.024456   1174.378262   3748.909206
VL64 -12945.373449  -4117.781080 -75135.018328 999999.999999
*  2023  1 30 13 41 30.00000000
PL64  -5714.137542  -3680.264631    948.360666   3749.367468
VL64 -10858.933792  -2709.894205 -75529.384073 999999.999999
*  2023  1 30 13 42  0.00000000
PL64  -5743.561706  -3686.290004    721.286137   3749.826247
VL64  -8754.350705  -1308.189573 -75839.574296 999999.999999
*  2023  1 30 13 42 30.00000000
PL64  -5766.647897  -3688.121600    493.407748   3750.285393
VL64  -6634.019380     85.684494 -76065.239876 999999.999999
*  2023  1 30 13 43  0.00000000
PL64  -5783.352494  -3685.785358    264.979476   3750.744717
VL64  -4500.360513   1470.098552 -76206.130050 999999.999999
*  2023  1 30 13 43 30.00000000
PL64  -5793.639175  -3679.312077     36.255899   3751.203963
VL64  -2355.817472   2843.444118 -76262.092790 999999.999999
*  2023  1 30 13 44  0.00000000
PL64  -5797.478977  -3668.737348   -192.508097   3751.663570
VL64   -202.853333   4204.135656 -76233.075609 999999.999999
*  2023  1 30 13 44 30.00000000
PL64  -5794.850353  -3654.101479   -421.057619   3752.123305
VL64   1956.052863   5550.612992 -76119.126144 999999.999999
*  2023  1 30 13 45  0.00000000
PL64  -5785.739209  -3635.449418   -649.138066   3752.582947
VL64   4118.409892   6881.343604 -75920.391945 999999.999999
*  2023  1 30 13 45 30.00000000
PL64  -5770.138942  -3612.830667   -876.495430   3753.043013
VL64   6281.718124   8194.825009 -75637.120181 999999.999999
*  2023  1 30 13 46  0.00000000
PL64  -5748.050453  -3586.299188  -1102.876592   3753.502520
VL64   8443.473466   9489.587033 -75269.656343 999999.999999
*  2023  1 30 13 46 30.00000000
PL64  -5719.482160  -3555.913302  -1328.029615   3753.962090
VL64  10601.170175  10764.193031 -74818.442663 999999.999999
*  2023  1 30 13 47  0.00000000
PL64  -5684.449996  -3521.735589  -1551.704033   3754.422040
VL64  12752.303654  12017.241440 -74284.017630 999999.999999
*  2023  1 30 13 47 30.00000000
PL64  -5642.977402  -3483.832777  -1773.651139   3754.881813
VL64  14894.373583  13247.367627 -73667.014344 999999.999999
*  2023  1 30 13 48  0.00000000
PL64  -5595.095312  -3442.275634  -1993.624265   3755.341259
VL64  17024.885612  14453.244523 -72968.159397 999999.999999
*  2023  1 30 13 48 30.00000000
PL64  -5540.842132  -3397.138849  -2211.379062   3755.800463
VL64  19141.354227  15633.583627 -72188.274199 999999.999999
*  2023  1 30 13 49  0.00000000
PL64  -5480.263702  -3348.500918  -2426.673793   3756.260292
VL64  21241.308089  16787.137796 -71328.274795 999999.999999
EOF
